[
    {
        "CCSDS_OMM_VERS": "3.0",
        "COMMENT": "GENERATED VIA SPACE-TRACK.ORG API",
        "CREATION_DATE": "2025-03-01T17:52:32",
        "ORIGINATOR": "18 SPCS",
        "OBJECT_NAME": "BEIDOU 3M27",
        "OBJECT_ID": "2024-168C",
        "CENTER_NAME": "EARTH",
        "REF_FRAME": "TEME",
        "TIME_SYSTEM": "UTC",
        "MEAN_ELEMENT_THEORY": "SGP4",
        "EPOCH": "2025-03-01T10:53:55.559328",
        "MEAN_MOTION": "1.86229987",
        "ECCENTRICITY": "0.00028940",
        "INCLINATION": "54.8778",
        "RA_OF_ASC_NODE": "318.6029",
        "ARG_OF_PERICENTER": "1.4396",
        "MEAN_ANOMALY": "169.0621",
        "EPHEMERIS_TYPE": "0",
        "CLASSIFICATION_TYPE": "U",
        "NORAD_CAT_ID": "61187",
        "ELEMENT_SET_NO": "999",
        "REV_AT_EPOCH": "45",
        "BSTAR": "0.00000000000000",
        "MEAN_MOTION_DOT": "-0.00000052",
        "MEAN_MOTION_DDOT": "0.0000000000000",
        "SEMIMAJOR_AXIS": "27906.290",
        "PERIOD": "773.237",
        "APOAPSIS": "21536.231",
        "PERIAPSIS": "21520.079",
        "OBJECT_TYPE": "PAYLOAD",
        "RCS_SIZE": "LARGE",
        "COUNTRY_CODE": "PRC",
        "LAUNCH_DATE": "2024-09-19",
        "SITE": "XSC",
        "DECAY_DATE": null,
        "FILE": "4656182",
        "GP_ID": "282015369",
        "TLE_LINE0": "0 BEIDOU 3M27",
        "TLE_LINE1": "1 61187U 24168C   25060.45411527 -.00000052  00000-0  00000-0 0  9994",
        "TLE_LINE2": "2 61187  54.8778 318.6029 0002894   1.4396 169.0621  1.86229987   455"
    }
]